{"type":"FeatureCollection","features":[{"type":"Feature","geometry":{"type":"Point","coordinates":[-0.10807189999999998,5.626253199999994]},"properties":{"category":"taxi_ranks","weight_in_category":1}},{"type":"Feature","geometry":{"type":"Point","coordinates":[-0.1090625,5.626312500000012]},"properties":{"category":"taxi_ranks","weight_in_category":1}},{"type":"Feature","geometry":{"type":"Point","coordinates":[-0.1084263,5.627217799999997]},"properties":{"category":"taxi_ranks","weight_in_category":1}},{"type":"Feature","geometry":{"type":"Point","coordinates":[-0.10683390000000001,5.627843499999997]},"properties":{"category":"taxi_ranks","weight_in_category":1}},{"type":"Feature","geometry":{"type":"Point","coordinates":[-0.10543100000000001,5.6370449000000065]},"properties":{"category":"taxi_ranks","weight_in_category":1}},{"type":"Feature","geometry":{"type":"Point","coordinates":[-0.10124929999999999,5.619107799999995]},"properties":{"category":"taxi_ranks","weight_in_category":1}},{"type":"Feature","geometry":{"type":"Point","coordinates":[-0.1006351,5.634943500000006]},"properties":{"category":"taxi_ranks","weight_in_category":1}},{"type":"Feature","geometry":{"type":"Point","coordinates":[-0.0941589,5.614643099999995]},"properties":{"category":"taxi_ranks","weight_in_category":1}},{"type":"Feature","geometry":{"type":"Point","coordinates":[-0.0863581,5.6221326999999945]},"properties":{"category":"taxi_ranks","weight_in_category":1}},{"type":"Feature","geometry":{"type":"Point","coordinates":[-0.1110649,5.580066099999996]},"properties":{"category":"taxi_ranks","weight_in_category":1}},{"type":"Feature","geometry":{"type":"Point","coordinates":[-0.10482279999999998,5.5815007000000065]},"properties":{"category":"taxi_ranks","weight_in_category":1}},{"type":"Feature","geometry":{"type":"Point","coordinates":[-0.104174,5.583385300000003]},"properties":{"category":"taxi_ranks","weight_in_category":1}},{"type":"Feature","geometry":{"type":"Point","coordinates":[-0.0984585,5.588122299999995]},"properties":{"category":"taxi_ranks","weight_in_category":1}},{"type":"Feature","geometry":{"type":"Point","coordinates":[-0.08898500000000001,5.594006000000007]},"properties":{"category":"taxi_ranks","weight_in_category":1}},{"type":"Feature","geometry":{"type":"Point","coordinates":[-0.0887427,5.593746699999997]},"properties":{"category":"taxi_ranks","weight_in_category":1}},{"type":"Feature","geometry":{"type":"Point","coordinates":[-0.0890687,5.593941099999995]},"properties":{"category":"taxi_ranks","weight_in_category":1}},{"type":"Feature","geometry":{"type":"Point","coordinates":[-0.0890782,5.5939573]},"properties":{"category":"taxi_ranks","weight_in_category":1}},{"type":"Feature","geometry":{"type":"Point","coordinates":[-0.1488806388524728,5.5823988188722495]},"properties":{"category":"demand","weight_in_category":1,"facility_id":112}},{"type":"Feature","geometry":{"type":"Point","coordinates":[-0.10731749999999998,5.609271399999997]},"properties":{"category":"taxi_ranks","weight_in_category":1}},{"type":"Feature","geometry":{"type":"Point","coordinates":[-0.1140903,5.618376900000001]},"properties":{"category":"taxi_ranks","weight_in_category":1}},{"type":"Feature","geometry":{"type":"Point","coordinates":[-0.1080394,5.6260838000000035]},"properties":{"category":"taxi_ranks","weight_in_category":1}},{"type":"Feature","geometry":{"type":"Point","coordinates":[-0.1080312,5.6261386999999985]},"properties":{"category":"taxi_ranks","weight_in_category":1}},{"type":"Feature","geometry":{"type":"Point","coordinates":[-0.114532,5.626197899999994]},"properties":{"category":"taxi_ranks","weight_in_category":1}},{"type":"Feature","geometry":{"type":"Point","coordinates":[-0.1249803,5.5855128999999835]},"properties":{"category":"taxi_ranks","weight_in_category":1}},{"type":"Feature","geometry":{"type":"Point","coordinates":[-0.1253646,5.586820299999999]},"properties":{"category":"taxi_ranks","weight_in_category":1}},{"type":"Feature","geometry":{"type":"Point","coordinates":[-0.1277128,5.587487499999995]},"properties":{"category":"taxi_ranks","weight_in_category":1}},{"type":"Feature","geometry":{"type":"Point","coordinates":[-0.1208468,5.592565899999997]},"properties":{"category":"taxi_ranks","weight_in_category":1}},{"type":"Feature","geometry":{"type":"Point","coordinates":[-0.12302310000000001,5.5933490000000035]},"properties":{"category":"taxi_ranks","weight_in_category":1}},{"type":"Feature","geometry":{"type":"Point","coordinates":[-0.127015,5.597452700000005]},"properties":{"category":"taxi_ranks","weight_in_category":1}},{"type":"Feature","geometry":{"type":"Point","coordinates":[-0.1266064,5.637613599999995]},"properties":{"category":"taxi_ranks","weight_in_category":1}},{"type":"Feature","geometry":{"type":"Point","coordinates":[-0.1262848,5.637522599999997]},"properties":{"category":"taxi_ranks","weight_in_category":1}},{"type":"Feature","geometry":{"type":"Point","coordinates":[-0.130913,5.6083698000000055]},"properties":{"category":"taxi_ranks","weight_in_category":1}},{"type":"Feature","geometry":{"type":"Point","coordinates":[-0.1292723,5.610385800000003]},"properties":{"category":"taxi_ranks","weight_in_category":1}},{"type":"Feature","geometry":{"type":"Point","coordinates":[-0.12485640000000002,5.617253899999994]},"properties":{"category":"taxi_ranks","weight_in_category":1}},{"type":"Feature","geometry":{"type":"Point","coordinates":[-0.1161125,5.618389899999983]},"properties":{"category":"taxi_ranks","weight_in_category":1}},{"type":"Feature","geometry":{"type":"Point","coordinates":[-0.11611159999999998,5.606215800000015]},"properties":{"category":"taxi_ranks","weight_in_category":1}},{"type":"Feature","geometry":{"type":"Point","coordinates":[-0.1159184,5.606168600000004]},"properties":{"category":"taxi_ranks","weight_in_category":1}},{"type":"Feature","geometry":{"type":"Point","coordinates":[-0.1462644928150767,5.605473363883775]},"properties":{"category":"demand","weight_in_category":1,"facility_id":111}},{"type":"Feature","geometry":{"type":"Point","coordinates":[-0.1764931,5.640966899999995]},"properties":{"category":"taxi_ranks","weight_in_category":1}},{"type":"Feature","geometry":{"type":"Point","coordinates":[-0.176462,5.627839899999998]},"properties":{"category":"taxi_ranks","weight_in_category":1}},{"type":"Feature","geometry":{"type":"Point","coordinates":[-0.1761314,5.640882700000006]},"properties":{"category":"taxi_ranks","weight_in_category":1}},{"type":"Feature","geometry":{"type":"Point","coordinates":[-0.16135900000000003,5.635828000000004]},"properties":{"category":"taxi_ranks","weight_in_category":1}},{"type":"Feature","geometry":{"type":"Point","coordinates":[-0.17623559999999996,5.641017199999993]},"properties":{"category":"taxi_ranks","weight_in_category":1}},{"type":"Feature","geometry":{"type":"Point","coordinates":[-0.1605244,5.649275000000017]},"properties":{"category":"taxi_ranks","weight_in_category":1}},{"type":"Feature","geometry":{"type":"Point","coordinates":[-0.186202,5.6437951000000055]},"properties":{"category":"taxi_ranks","weight_in_category":1}},{"type":"Feature","geometry":{"type":"Point","coordinates":[-0.17895200000000003,5.640959899999999]},"properties":{"category":"taxi_ranks","weight_in_category":1}},{"type":"Feature","geometry":{"type":"Point","coordinates":[-0.17815,5.639793499999982]},"properties":{"category":"taxi_ranks","weight_in_category":1}},{"type":"Feature","geometry":{"type":"Point","coordinates":[-0.178116,5.641684100000006]},"properties":{"category":"taxi_ranks","weight_in_category":1}},{"type":"Feature","geometry":{"type":"Point","coordinates":[-0.1775614,5.6405338]},"properties":{"category":"taxi_ranks","weight_in_category":1}},{"type":"Feature","geometry":{"type":"Point","coordinates":[-0.1772687,5.6403272000000015]},"properties":{"category":"taxi_ranks","weight_in_category":1}},{"type":"Feature","geometry":{"type":"Point","coordinates":[-0.1794245,5.649464699999996]},"properties":{"category":"taxi_ranks","weight_in_category":1}},{"type":"Feature","geometry":{"type":"Point","coordinates":[-0.1814384,5.662565200000003]},"properties":{"category":"taxi_ranks","weight_in_category":1}},{"type":"Feature","geometry":{"type":"Point","coordinates":[-0.1580924,5.596747300000004]},"properties":{"category":"taxi_ranks","weight_in_category":1}},{"type":"Feature","geometry":{"type":"Point","coordinates":[-0.17254459999999996,5.608072500000006]},"properties":{"category":"taxi_ranks","weight_in_category":1}},{"type":"Feature","geometry":{"type":"Point","coordinates":[-0.1828084,5.616278499999993]},"properties":{"category":"taxi_ranks","weight_in_category":1}},{"type":"Feature","geometry":{"type":"Point","coordinates":[-0.1736,5.6214200000000005]},"properties":{"category":"taxi_ranks","weight_in_category":1}},{"type":"Feature","geometry":{"type":"Point","coordinates":[-0.19372820000000002,5.6018378999999925]},"properties":{"category":"taxi_ranks","weight_in_category":1}},{"type":"Feature","geometry":{"type":"Point","coordinates":[-0.1869644,5.603716800000001]},"properties":{"category":"taxi_ranks","weight_in_category":1}},{"type":"Feature","geometry":{"type":"Point","coordinates":[-0.186964,5.603700299999986]},"properties":{"category":"taxi_ranks","weight_in_category":1}},{"type":"Feature","geometry":{"type":"Point","coordinates":[-0.1869579,5.603737899999999]},"properties":{"category":"taxi_ranks","weight_in_category":1}},{"type":"Feature","geometry":{"type":"Point","coordinates":[-0.1869579,5.603737899999999]},"properties":{"category":"taxi_ranks","weight_in_category":1}},{"type":"Feature","geometry":{"type":"Point","coordinates":[-0.1869579,5.603737899999999]},"properties":{"category":"taxi_ranks","weight_in_category":1}},{"type":"Feature","geometry":{"type":"Point","coordinates":[-0.20896202042638481,5.627020742530377]},"properties":{"category":"demand","weight_in_category":1,"facility_id":113}},{"type":"Feature","geometry":{"type":"Point","coordinates":[-0.19743060000000004,5.559284599999998]},"properties":{"category":"taxi_ranks","weight_in_category":1}},{"type":"Feature","geometry":{"type":"Point","coordinates":[-0.19743060000000004,5.559284599999998]},"properties":{"category":"taxi_ranks","weight_in_category":1}},{"type":"Feature","geometry":{"type":"Point","coordinates":[-0.1965372,5.5508093999999915]},"properties":{"category":"taxi_ranks","weight_in_category":1}},{"type":"Feature","geometry":{"type":"Point","coordinates":[-0.17277479999999998,5.558229999999995]},"properties":{"category":"taxi_ranks","weight_in_category":1}},{"type":"Feature","geometry":{"type":"Point","coordinates":[-0.159004,5.5600411000000065]},"properties":{"category":"taxi_ranks","weight_in_category":1}},{"type":"Feature","geometry":{"type":"Point","coordinates":[-0.1975313,5.580829600000001]},"properties":{"category":"taxi_ranks","weight_in_category":1}},{"type":"Feature","geometry":{"type":"Point","coordinates":[-0.1794237,5.573735799999994]},"properties":{"category":"taxi_ranks","weight_in_category":1}},{"type":"Feature","geometry":{"type":"Point","coordinates":[-0.1784836,5.576765199999997]},"properties":{"category":"taxi_ranks","weight_in_category":1}},{"type":"Feature","geometry":{"type":"Point","coordinates":[-0.1784836,5.576765199999997]},"properties":{"category":"taxi_ranks","weight_in_category":1}},{"type":"Feature","geometry":{"type":"Point","coordinates":[-0.1784836,5.576765199999997]},"properties":{"category":"taxi_ranks","weight_in_category":1}},{"type":"Feature","geometry":{"type":"Point","coordinates":[-0.18947616135684703,5.579974609763852]},"properties":{"category":"demand","weight_in_category":1,"facility_id":116}},{"type":"Feature","geometry":{"type":"Point","coordinates":[-0.21827620000000003,5.5880889000000025]},"properties":{"category":"taxi_ranks","weight_in_category":1}},{"type":"Feature","geometry":{"type":"Point","coordinates":[-0.1800636,5.588940000000008]},"properties":{"category":"taxi_ranks","weight_in_category":1}},{"type":"Feature","geometry":{"type":"Point","coordinates":[-0.1811751,5.591072100000005]},"properties":{"category":"taxi_ranks","weight_in_category":1}},{"type":"Feature","geometry":{"type":"Point","coordinates":[-0.2061385,5.5946467999999925]},"properties":{"category":"taxi_ranks","weight_in_category":1}},{"type":"Feature","geometry":{"type":"Point","coordinates":[-0.2478089,5.603225300000005]},"properties":{"category":"taxi_ranks","weight_in_category":1}},{"type":"Feature","geometry":{"type":"Point","coordinates":[-0.2468544,5.608157900000009]},"properties":{"category":"taxi_ranks","weight_in_category":1}},{"type":"Feature","geometry":{"type":"Point","coordinates":[-0.234345,5.6127810000000125]},"properties":{"category":"taxi_ranks","weight_in_category":1}},{"type":"Feature","geometry":{"type":"Point","coordinates":[-0.23991689999999996,5.613118499999999]},"properties":{"category":"taxi_ranks","weight_in_category":1}},{"type":"Feature","geometry":{"type":"Point","coordinates":[-0.216704,5.595657299999999]},"properties":{"category":"taxi_ranks","weight_in_category":1}},{"type":"Feature","geometry":{"type":"Point","coordinates":[-0.22102920000000004,5.602900700000021]},"properties":{"category":"taxi_ranks","weight_in_category":1}},{"type":"Feature","geometry":{"type":"Point","coordinates":[-0.2169007,5.604506999999998]},"properties":{"category":"taxi_ranks","weight_in_category":1}},{"type":"Feature","geometry":{"type":"Point","coordinates":[-0.21779039999999997,5.606903599999995]},"properties":{"category":"taxi_ranks","weight_in_category":1}},{"type":"Feature","geometry":{"type":"Point","coordinates":[-0.2168217,5.6057402]},"properties":{"category":"taxi_ranks","weight_in_category":1}},{"type":"Feature","geometry":{"type":"Point","coordinates":[-0.21724869999999996,5.606714499999995]},"properties":{"category":"taxi_ranks","weight_in_category":1}},{"type":"Feature","geometry":{"type":"Point","coordinates":[-0.2147202,5.567685200000014]},"properties":{"category":"taxi_ranks","weight_in_category":1}},{"type":"Feature","geometry":{"type":"Point","coordinates":[-0.2194335,5.568455700000001]},"properties":{"category":"taxi_ranks","weight_in_category":1}},{"type":"Feature","geometry":{"type":"Point","coordinates":[-0.2149817,5.568856100000005]},"properties":{"category":"taxi_ranks","weight_in_category":1}},{"type":"Feature","geometry":{"type":"Point","coordinates":[-0.21595709999999999,5.568972299999999]},"properties":{"category":"taxi_ranks","weight_in_category":1}},{"type":"Feature","geometry":{"type":"Point","coordinates":[-0.21616,5.569034000000002]},"properties":{"category":"taxi_ranks","weight_in_category":1}},{"type":"Feature","geometry":{"type":"Point","coordinates":[-0.2130986,5.569738999999998]},"properties":{"category":"taxi_ranks","weight_in_category":1}},{"type":"Feature","geometry":{"type":"Point","coordinates":[-0.21034450000000002,5.544756500000005]},"properties":{"category":"taxi_ranks","weight_in_category":1}},{"type":"Feature","geometry":{"type":"Point","coordinates":[-0.2105504,5.547174800000008]},"properties":{"category":"taxi_ranks","weight_in_category":1}},{"type":"Feature","geometry":{"type":"Point","coordinates":[-0.23219929999999997,5.557932800000003]},"properties":{"category":"taxi_ranks","weight_in_category":1}},{"type":"Feature","geometry":{"type":"Point","coordinates":[-0.23632,5.565043900000006]},"properties":{"category":"taxi_ranks","weight_in_category":1}},{"type":"Feature","geometry":{"type":"Point","coordinates":[-0.23922320000000002,5.580040999999994]},"properties":{"category":"taxi_ranks","weight_in_category":1}},{"type":"Feature","geometry":{"type":"Point","coordinates":[-0.24002170000000003,5.580590999999998]},"properties":{"category":"taxi_ranks","weight_in_category":1}},{"type":"Feature","geometry":{"type":"Point","coordinates":[-0.2401791,5.581226200000003]},"properties":{"category":"taxi_ranks","weight_in_category":1}},{"type":"Feature","geometry":{"type":"Point","coordinates":[-0.20923300000000003,5.5827046]},"properties":{"category":"taxi_ranks","weight_in_category":1}},{"type":"Feature","geometry":{"type":"Point","coordinates":[-0.2652194,5.530162500000003]},"properties":{"category":"taxi_ranks","weight_in_category":1}},{"type":"Feature","geometry":{"type":"Point","coordinates":[-0.265538,5.530848500000005]},"properties":{"category":"taxi_ranks","weight_in_category":1}},{"type":"Feature","geometry":{"type":"Point","coordinates":[-0.2552879,5.531812599999995]},"properties":{"category":"taxi_ranks","weight_in_category":1}},{"type":"Feature","geometry":{"type":"Point","coordinates":[-0.2493435,5.550573499999999]},"properties":{"category":"taxi_ranks","weight_in_category":1}},{"type":"Feature","geometry":{"type":"Point","coordinates":[-0.2526163,5.551174400000008]},"properties":{"category":"taxi_ranks","weight_in_category":1}},{"type":"Feature","geometry":{"type":"Point","coordinates":[-0.24870369999999997,5.553028100000006]},"properties":{"category":"taxi_ranks","weight_in_category":1}},{"type":"Feature","geometry":{"type":"Point","coordinates":[-0.2607438585399376,5.548368970121032]},"properties":{"category":"demand","weight_in_category":1,"facility_id":115}},{"type":"Feature","geometry":{"type":"Point","coordinates":[-0.2722501,5.571172599999997]},"properties":{"category":"taxi_ranks","weight_in_category":1}},{"type":"Feature","geometry":{"type":"Point","coordinates":[-0.2525893,5.574369000000004]},"properties":{"category":"taxi_ranks","weight_in_category":1}},{"type":"Feature","geometry":{"type":"Point","coordinates":[-0.26852,5.592202900000004]},"properties":{"category":"taxi_ranks","weight_in_category":1}},{"type":"Feature","geometry":{"type":"Point","coordinates":[-0.2633846,5.5978126999999915]},"properties":{"category":"taxi_ranks","weight_in_category":1}},{"type":"Feature","geometry":{"type":"Point","coordinates":[-0.2634117,5.598111700000004]},"properties":{"category":"taxi_ranks","weight_in_category":1}},{"type":"Feature","geometry":{"type":"Point","coordinates":[-0.2634271,5.598114199999998]},"properties":{"category":"taxi_ranks","weight_in_category":1}},{"type":"Feature","geometry":{"type":"Point","coordinates":[-0.2496477428018336,5.589581666266653]},"properties":{"category":"demand","weight_in_category":1,"facility_id":114}}]}