{"type":"FeatureCollection","features":[{"type":"Feature","geometry":{"type":"Point","coordinates":[-2.026329650940281,7.088597619471514]},"properties":{"name":"","address":"","id":1}},{"type":"Feature","geometry":{"type":"Point","coordinates":[-2.034767860223652,7.090451184892089]},"properties":{"name":"","address":"","id":10}},{"type":"Feature","geometry":{"type":"Point","coordinates":[-1.96975205524943,7.091206335641516]},"properties":{"name":"","address":"","id":5}},{"type":"Feature","geometry":{"type":"Point","coordinates":[-2.065684958092731,7.110496612959238]},"properties":{"name":"","address":"","id":9}},{"type":"Feature","geometry":{"type":"Point","coordinates":[-1.9895334653845325,7.122235136229818]},"properties":{"name":"","address":"","id":4}},{"type":"Feature","geometry":{"type":"Point","coordinates":[-2.027367135264352,7.0979339969838975]},"properties":{"name":"","address":"","id":12}},{"type":"Feature","geometry":{"type":"Point","coordinates":[-2.022387204598651,7.095462617372391]},"properties":{"name":"","address":"","id":13}},{"type":"Feature","geometry":{"type":"Point","coordinates":[-2.0740540258876514,7.120656288177969]},"properties":{"name":"","address":"","id":14}},{"type":"Feature","geometry":{"type":"Point","coordinates":[-2.0242546527413374,7.044521889579599]},"properties":{"name":"","address":"","id":6}},{"type":"Feature","geometry":{"type":"Point","coordinates":[-2.0518518066835494,7.054339743747462]},"properties":{"name":"","address":"","id":7}},{"type":"Feature","geometry":{"type":"Point","coordinates":[-2.029857085821802,7.060793325072581]},"properties":{"name":"","address":"","id":3}},{"type":"Feature","geometry":{"type":"Point","coordinates":[-2.0654774597503764,7.078917803683765]},"properties":{"name":"","address":"","id":8}},{"type":"Feature","geometry":{"type":"Point","coordinates":[-2.020727217859817,7.079467009426182]},"properties":{"name":"","address":"","id":2}},{"type":"Feature","geometry":{"type":"Point","coordinates":[-2.016646444215084,7.0729450454555405]},"properties":{"name":"","address":"","id":11}}]}